[{"OBJECT_NAME":"STARLINK-5495","OBJECT_ID":"2023-021H","EPOCH":"2026-03-09T16:57:15.087168","MEAN_MOTION":14.98345366,"ECCENTRICITY":0.00035922,"INCLINATION":70.0007,"RA_OF_ASC_NODE":184.4286,"ARG_OF_PERICENTER":276.1302,"MEAN_ANOMALY":83.9448,"EPHEMERIS_TYPE":0,"CLASSIFICATION_TYPE":"U","NORAD_CAT_ID":55635,"ELEMENT_SET_NO":999,"REV_AT_EPOCH":16879,"BSTAR":1.6539935e-5,"MEAN_MOTION_DOT":1.04e-6,"MEAN_MOTION_DDOT":0},{"OBJECT_NAME":"FENGYUN 1C DEB","OBJECT_ID":"1999-025CBA","EPOCH":"2026-03-08T12:23:36.052800","MEAN_MOTION":14.69215885,"ECCENTRICITY":0.01503921,"INCLINATION":98.6639,"RA_OF_ASC_NODE":327.5015,"ARG_OF_PERICENTER":276.1156,"MEAN_ANOMALY":208.7526,"EPHEMERIS_TYPE":0,"CLASSIFICATION_TYPE":"U","NORAD_CAT_ID":31644,"ELEMENT_SET_NO":999,"REV_AT_EPOCH":72303,"BSTAR":0.0014660456,"MEAN_MOTION_DOT":0.00010219,"MEAN_MOTION_DDOT":0}]
